SES-9                   
1 41380U 16013A   18359.43832810 -.00000345  00000-0  00000+0 0  9994
2 41380   0.0361 279.7474 0000415  74.2370   6.0158  1.00271491 10377
EUTELSAT 65 WEST A      
1 41382U 16014A   18357.92436921 -.00000270  00000-0  00000-0 0  9990
2 41382   0.0461 357.3709 0002194 286.4901  76.1213  1.00268884 10155
IRNSS-1F                
1 41384U 16015A   18358.34180742  .00000165  00000-0  00000-0 0  9999
2 41384   3.0424 247.8601 0018599 178.8204 181.6827  1.00267052 10305
BEIDOU IGSO-6           
1 41434U 16021A   18359.48289198 -.00000164  00000-0  00000+0 0  9992
2 41434  56.2935  66.3282 0035816 195.8018 101.7492  1.00285512 10100
IRNSS-1G                
1 41469U 16027A   18358.07850690 -.00000327  00000-0  00000+0 0  9992
2 41469   3.0989 249.8771 0002224 224.8205 135.6640  1.00268894  9806
JCSAT 2B                
1 41471U 16028A   18359.31167959 -.00000164  00000-0  00000+0 0  9992
2 41471   0.0166  24.0070 0002386 266.5842  69.3841  1.00273591  9702
THAICOM 8               
1 41552U 16031A   18358.52353835 -.00000118  00000-0  00000-0 0  9998
2 41552   0.0636  45.1498 0003017 270.0071  44.8227  1.00270857  9335
INTELSAT 31 (IS-31)     
1 41581U 16035A   18359.00435062 -.00000149  00000-0  00000+0 0  9994
2 41581   0.0362 262.1349 0002150 320.9730 136.8775  1.00269029  9310
BD-2-G7                 
1 41586U 16037A   18358.93799315 -.00000353  00000-0  00000-0 0  9994
2 41586   0.7430  16.8443 0008313  12.9057 151.9158  1.00271834  9404
ABS-2A (MONGOLSAT-1)    
1 41588U 16038A   18358.53410364 -.00000080  00000-0  00000-0 0  9994
2 41588   0.0176  29.1749 0000912 196.4831 134.3387  1.00269065  9331
EUTELSAT 117 WEST B     
1 41589U 16038B   18359.06522144 -.00000010  00000-0  00000+0 0  9996
2 41589   0.0105 158.4184 0000370 335.5182 226.0685  1.00270494  9323
BRISAT                  
1 41591U 16039A   18359.32139310 -.00000197  00000-0  00000+0 0  9994
2 41591   0.0205   7.7639 0002354 268.8189  83.3903  1.00269145  9268
ECHOSTAR 18             
1 41592U 16039B   18358.91102078 -.00000280  00000-0  00000-0 0  9994
2 41592   0.0240  10.6329 0001778 269.3172  80.0299  1.00269978  9248
TIANTONG-1 1            
1 41725U 16048A   18359.38475854 -.00000315  00000-0  00000+0 0  9997
2 41725   3.7780 327.5359 0006652 353.3935  12.8309  1.00272257  8894
JCSAT-16                
1 41729U 16050A   18359.33928251 -.00000250  00000-0  00000+0 0  9991
2 41729   0.0368  74.3708 0002498 267.4163  18.2048  1.00270333  8698
INTELSAT 36 (IS-36)     
1 41747U 16053A   18358.55133964 -.00000021  00000-0  00000-0 0  9993
2 41747   0.0110   4.4948 0001311 351.3266   4.1815  1.00270016  8585
INTELSAT 33E (IS-33E)   
1 41748U 16053B   18358.57485576  .00000052  00000-0  00000+0 0  9997
2 41748   0.0225  18.3282 0002245 252.3900  89.2599  1.00271698  8838
INSAT-3DR               
1 41752U 16054A   18359.53307938 -.00000077  00000-0  00000+0 0  9993
2 41752   0.0842  98.3662 0014025 174.3771  87.0955  1.00272652  8424
GSAT-18                 
1 41793U 16060A   18358.53610049 -.00000073  00000-0  00000+0 0  9990
2 41793   0.0569 104.4722 0001950 167.9354  87.5740  1.00270717  8156
SKY MUSTER 2            
1 41794U 16060B   18359.33716358 -.00000244  00000-0  00000+0 0  9990
2 41794   0.0111 316.1668 0001848 323.9604  79.8528  1.00270569  8196
HIMAWARI-9              
1 41836U 16064A   18359.34834666 -.00000276  00000-0  00000+0 0  9990
2 41836   0.0231  31.6770 0001681 298.6170  29.6965  1.00262159  7924
SHIJIAN-17 (SJ-17)      
1 41838U 16065A   18359.74227792 -.00000263  00000-0  00000+0 0  9999
2 41838   0.3707  98.7608 0001908 222.8023 133.9936  1.00267300  7851
GOES 16                 
1 41866U 16071A   18358.94928653 -.00000247  00000-0  00000+0 0  9994
2 41866   0.0556 148.8055 0000902 154.4303  56.7579  1.00270061  7727
TIANLIAN 1-04           
1 41869U 16072A   18358.87739355 -.00000103  00000-0  00000+0 0  9990
2 41869   1.4672 285.4362 0009328 160.9098  39.9069  1.00270572  7923
WGS F8 (USA 272)        
1 41879U 16075A   18358.32619541 -.00000199  00000-0  00000+0 0  9993
2 41879   0.0190  20.3346 0000191 130.7535 208.9130  1.00270283  7535
FENGYUN 4A              
1 41882U 16077A   18358.94841056 -.00000329  00000-0  00000-0 0  9991
2 41882   0.0451 301.4049 0003384 145.2097  92.8821  1.00272314  7593
ECHOSTAR 19             
1 41893U 16079A   18359.01007617 -.00000137  00000-0  00000+0 0  9997
2 41893   0.0175  22.5689 0001698 252.8043  84.6096  1.00271585  7357
JCSAT-15                
1 41903U 16082A   18359.43341214 -.00000351  00000-0  00000+0 0  9991
2 41903   0.0143 308.3945 0001810 346.3546  65.2326  1.00269961  7409
STAR ONE D1             
1 41904U 16082B   18358.97368769 -.00000209  00000-0  00000+0 0  9996
2 41904   0.0319  90.8791 0003161 191.6405  77.4472  1.00271612  7406
TJS-2                   
1 41911U 17001A   18359.23402943 -.00000341  00000-0  00000+0 0  9996
2 41911   0.3072 282.7101 0003584  32.0755 330.6910  1.00271447  7345
HISPASAT 36W-1          
1 41942U 17006A   18358.84077281 -.00000242  00000-0  00000+0 0  9994
2 41942   0.0075 324.8569 0001150 304.3689  90.7611  1.00270369  7145
TELKOM 3S               
1 41944U 17007A   18359.41138266 -.00000363  00000-0  00000+0 0  9996
2 41944   0.0149  27.6905 0002340 245.7244  86.5588  1.00270504  6830
INTELSAT 32E (IS-32E)   
1 41945U 17007B   18358.86069116 -.00000267  00000-0  00000+0 0  9995
2 41945   0.0239  16.1503 0000352 235.1923 108.6535  1.00268509  6869
ECHOSTAR 23             
1 42070U 17014A   18357.86815491 -.00000267  00000-0  00000-0 0  9998
2 42070   0.0240   6.4040 0001975 259.8452  93.7283  1.00269823  6540
WGS F9 (USA 275)        
1 42075U 17016A   18358.58373126  .00000076  00000-0  00000+0 0  9995
2 42075   0.0107 351.6827 0000227 291.7911  76.5278  1.00270820  6541
SES-10                  
1 42432U 17017A   18358.92632567 -.00000270  00000-0  00000-0 0  9996
2 42432   0.0104  14.6952 0002898 261.5835  83.6907  1.00269444  6386
CHINASAT 16 (SJ-13)     
1 42662U 17018A   18358.93799315 -.00000351  00000-0  00000+0 0  9997
2 42662   0.0688  90.0965 0006277 156.3196 295.1977  1.00272667  6351
KOREASAT 7              
1 42691U 17023A   18359.41761433 -.00000362  00000-0  00000+0 0  9991
2 42691   0.0311  24.1602 0001440 223.9288 111.8957  1.00269950  6063
SGDC                    
1 42692U 17023B   18358.94834697 -.00000248  00000-0  00000+0 0  9995
2 42692   0.0142 339.3935 0002327 292.5431  88.0393  1.00267811  6066
GSAT-9                  
1 42695U 17024A   18358.47122457 -.00000284  00000-0  00000-0 0  9992
2 42695   0.0999 278.1340 0002033  18.7732  63.0764  1.00271188  5948
INMARSAT 5-F4           
1 42698U 17025A   18358.58466062  .00000079  00000-0  00000+0 0  9991
2 42698   0.0586 116.6905 0001037 237.5509   5.7612  1.00269477  5888
SES-15                  
1 42709U 17026A   18359.09882319  .00000061  00000-0  00000+0 0  9990
2 42709   0.0175 358.7635 0000725 300.5852  60.6459  1.00272008  6805
VIASAT-2                
1 42740U 17029A   18358.93473447 -.00000263  00000-0  00000+0 0  9993
2 42740   0.0235  11.3477 0000464 281.6209  67.0265  1.00269633  5803
EUTELSAT 172B           
1 42741U 17029B   18359.26169139 -.00000006  00000-0  00000+0 0  9996
2 42741   0.0217   4.7685 0005126 266.0675  89.1053  1.00269589  6323
GSAT-19                 
1 42747U 17031A   18358.60850650  .00000128  00000-0  00000+0 0  9991
2 42747   0.0356 101.4891 0001868 221.0707  37.4309  1.00270494  5745
ECHOSTAR 21             
1 42749U 17032A   18358.59084652  .00000071  00000-0  00000+0 0  9990
2 42749   6.5403 315.9353 0002344 315.8418  44.2761  1.00273120  5733
CHINASAT 9A (ZX 9A)     
1 42763U 17035A   18358.94841056 -.00000310  00000-0  00000-0 0  9995
2 42763   0.0604 122.8264 0000882 304.3478 109.0494  1.00266623  6263
BULGARIASAT-1           
1 42801U 17038A   18358.73577782  .00000013  00000-0  00000-0 0  9999
2 42801   0.0252 304.6437 0002608 325.0597  90.2699  1.00270888  5442
HELLAS-SAT 3            
1 42814U 17040A   18358.63307057  .00000155  00000-0  00000-0 0  9998
2 42814   0.0680  50.2892 0003302 272.4765  37.2150  1.00271040  5516
GSAT-17                 
1 42815U 17040B   18358.48189281 -.00000254  00000-0  00000+0 0  9999
2 42815   0.0603 108.0965 0006910 162.5781  89.2501  1.00269632  5487
INTELSAT 35E (IS-35E)   
1 42818U 17041A   18358.83657946 -.00000236  00000-0  00000-0 0  9991
2 42818   0.0376 247.4600 0001514  35.4980  77.0279  1.00270781  5489
COSMOS 2520             
1 42907U 17046A   18358.61648573  .00000140  00000-0  00000+0 0  9999
2 42907   0.0349  89.9901 0002244 306.1013 323.9275  1.00268592  5001
TDRS 13                 
1 42915U 17047A   18358.79674829 -.00000283  00000-0  00000+0 0  9990
2 42915   6.3767 330.8760 0028537   6.2566 353.8796  1.00262697  4995
QZS-3                   
1 42917U 17048A   18359.38651549 -.00000348  00000-0  00000+0 0  9995
2 42917   0.0194 194.8533 0001806  81.1976  83.9285  1.00265967  4992
AMAZONAS 5              
1 42934U 17053A   18358.90989988 -.00000281  00000-0  00000+0 0  9994
2 42934   0.0298 325.8642 0004478 330.4764  63.6159  1.00271338  4743
ASIASAT 9               
1 42942U 17057A   18358.96500289 -.00000358  00000-0  00000+0 0  9991
2 42942   0.0017 198.0767 0002791  69.1647 295.7046  1.00270277  4554
INTELSAT 37E (IS-37E)   
1 42950U 17059A   18358.79085093 -.00000139  00000-0  00000-0 0  9992
2 42950   0.0198 340.7573 0003223 290.5811  88.6247  1.00267553  4665
BSAT-4A                 
1 42951U 17059B   18359.43402061 -.00000350  00000-0  00000+0 0  9997
2 42951   0.0535  35.6030 0002240 314.4001   9.9930  1.00271526  4574
SES-11 (ECHOSTAR 105)   
1 42967U 17063A   18359.03172620 -.00000088  00000-0  00000+0 0  9998
2 42967   0.0166   8.1289 0002948 276.5860  75.2525  1.00269928  4432
